[{"OBJECT_NAME":"YAOGAN-30 04B","OBJECT_ID":"2017-085B","EPOCH":"2026-03-09T23:08:06.218304","MEAN_MOTION":15.02136468,"ECCENTRICITY":0.00051709,"INCLINATION":34.9961,"RA_OF_ASC_NODE":34.6701,"ARG_OF_PERICENTER":206.1156,"MEAN_ANOMALY":153.9292,"EPHEMERIS_TYPE":0,"CLASSIFICATION_TYPE":"U","NORAD_CAT_ID":43082,"ELEMENT_SET_NO":999,"REV_AT_EPOCH":44776,"BSTAR":0.0003202307,"MEAN_MOTION_DOT":4.272e-5,"MEAN_MOTION_DDOT":0},{"OBJECT_NAME":"STARLINK-4439","OBJECT_ID":"2022-099AK","EPOCH":"2026-03-09T22:22:49.209600","MEAN_MOTION":15.05646138,"ECCENTRICITY":9.779e-5,"INCLINATION":97.6028,"RA_OF_ASC_NODE":191.4074,"ARG_OF_PERICENTER":97.2398,"MEAN_ANOMALY":262.894,"EPHEMERIS_TYPE":0,"CLASSIFICATION_TYPE":"U","NORAD_CAT_ID":53498,"ELEMENT_SET_NO":999,"REV_AT_EPOCH":19608,"BSTAR":2.6099669e-5,"MEAN_MOTION_DOT":3.16e-6,"MEAN_MOTION_DDOT":0}]
